SL-4 R/B                
1 39679U 14021B   26002.55284853  .00018425  00000+0  42852-3 0  9995
2 39679  51.6093 299.4080 0100165 221.4968 137.8379 15.37224019646094
ALOS-2                  
1 39766U 14029A   26002.77686596  .00008423  00000+0  11334-2 0  9991
2 39766  97.9222 102.3239 0001343  98.7293 261.4070 14.79471312627120
YAOGAN-29               
1 41038U 15069A   26002.80488102  .00000274  00000+0  40463-4 0  9991
2 41038  98.0206  31.0429 0001466 147.9603 212.1700 14.82908060546117
ASTRO-H (HITOMI)        
1 41337U 16012A   26002.52054478  .00005824  00000+0  34841-3 0  9994
2 41337  31.0008  63.3877 0009599  27.6364 332.4783 15.09515369542225
HXMT (HUIYAN)           
1 42758U 17034A   26002.54004167  .00010228  00000+0  51959-3 0  9992
2 42758  43.0156  24.1826 0032249 179.0039 181.0878 15.16536228472497
CZ-2C R/B               
1 43521U 18054D   26002.44289774  .00172949  00000+0  90664-3 0  9997
2 43521  35.1338  40.0224 0012451 349.8056  10.2425 15.79181139418327
SAOCOM 1A               
1 43641U 18076A   26002.60019394 -.00000224  00000+0 -21537-4 0  9993
2 43641  97.8843 191.7182 0001330  83.2580 276.8784 14.82157569391576
H-2A R/B                
1 43682U 18084L   26002.51484134  .00030227  00000+0  79270-3 0  9995
2 43682  98.8758 205.9140 0026068 253.5313 106.3063 15.38280019395592
SAOCOM 1B               
1 46265U 20059A   26002.76644302  .00001288  00000+0  16833-3 0  9993
2 46265  97.8841 190.9818 0001476  84.3959 275.7422 14.82168157288981
CSS (TIANHE)            
1 48274U 21035A   26002.71819254  .00030782  00000+0  37051-3 0  9991
2 48274  41.4660 249.2667 0010301 206.2157 153.8161 15.60093313267306
COSMOS 2550             
1 48865U 21056A   26002.78809697 -.00000166  00000+0  77585-6 0  9990
2 48865  67.1441 240.2690 0008340 269.2800  90.7399 15.33828757253355
CZ-2C R/B               
1 52794U 22058K   26002.19157010  .00040777  00000+0  69708-3 0  9995
2 52794  50.1924 299.1650 0043900 282.3337  77.2719 15.49737381199804
