CCSDS_OMM_VERS = 2.0
CREATION_DATE  = 
ORIGINATOR     = 

OBJECT_NAME    = SL-4 R/B
OBJECT_ID      = 2014-021B
CENTER_NAME    = EARTH
REF_FRAME      = TEME
TIME_SYSTEM    = UTC
MEAN_ELEMENT_THEORY = SGP/SGP4

EPOCH          = 2026-01-02T13:16:06.112992
MEAN_MOTION    = 15.37224019
ECCENTRICITY   = .0100165
INCLINATION    = 51.6093
RA_OF_ASC_NODE = 299.4080
ARG_OF_PERICENTER = 221.4968
MEAN_ANOMALY   = 137.8379

EPHEMERIS_TYPE = 0
CLASSIFICATION_TYPE = U
NORAD_CAT_ID   = 39679
ELEMENT_SET_NO = 999
REV_AT_EPOCH   = 64609
BSTAR          = .42852E-3
MEAN_MOTION_DOT = .18425E-3
MEAN_MOTION_DDOT = 0

CCSDS_OMM_VERS = 2.0
CREATION_DATE  = 
ORIGINATOR     = 

OBJECT_NAME    = ALOS-2
OBJECT_ID      = 2014-029A
CENTER_NAME    = EARTH
REF_FRAME      = TEME
TIME_SYSTEM    = UTC
MEAN_ELEMENT_THEORY = SGP/SGP4

EPOCH          = 2026-01-02T18:38:41.218944
MEAN_MOTION    = 14.79471312
ECCENTRICITY   = .0001343
INCLINATION    = 97.9222
RA_OF_ASC_NODE = 102.3239
ARG_OF_PERICENTER = 98.7293
MEAN_ANOMALY   = 261.4070

EPHEMERIS_TYPE = 0
CLASSIFICATION_TYPE = U
NORAD_CAT_ID   = 39766
ELEMENT_SET_NO = 999
REV_AT_EPOCH   = 62712
BSTAR          = .11334E-2
MEAN_MOTION_DOT = .8423E-4
MEAN_MOTION_DDOT = 0

CCSDS_OMM_VERS = 2.0
CREATION_DATE  = 
ORIGINATOR     = 

OBJECT_NAME    = YAOGAN-29
OBJECT_ID      = 2015-069A
CENTER_NAME    = EARTH
REF_FRAME      = TEME
TIME_SYSTEM    = UTC
MEAN_ELEMENT_THEORY = SGP/SGP4

EPOCH          = 2026-01-02T19:19:01.720128
MEAN_MOTION    = 14.82908060
ECCENTRICITY   = .0001466
INCLINATION    = 98.0206
RA_OF_ASC_NODE = 31.0429
ARG_OF_PERICENTER = 147.9603
MEAN_ANOMALY   = 212.1700

EPHEMERIS_TYPE = 0
CLASSIFICATION_TYPE = U
NORAD_CAT_ID   = 41038
ELEMENT_SET_NO = 999
REV_AT_EPOCH   = 54611
BSTAR          = .40463E-4
MEAN_MOTION_DOT = .274E-5
MEAN_MOTION_DDOT = 0

CCSDS_OMM_VERS = 2.0
CREATION_DATE  = 
ORIGINATOR     = 

OBJECT_NAME    = ASTRO-H (HITOMI)
OBJECT_ID      = 2016-012A
CENTER_NAME    = EARTH
REF_FRAME      = TEME
TIME_SYSTEM    = UTC
MEAN_ELEMENT_THEORY = SGP/SGP4

EPOCH          = 2026-01-02T12:29:35.068992
MEAN_MOTION    = 15.09515369
ECCENTRICITY   = .0009599
INCLINATION    = 31.0008
RA_OF_ASC_NODE = 63.3877
ARG_OF_PERICENTER = 27.6364
MEAN_ANOMALY   = 332.4783

EPHEMERIS_TYPE = 0
CLASSIFICATION_TYPE = U
NORAD_CAT_ID   = 41337
ELEMENT_SET_NO = 999
REV_AT_EPOCH   = 54222
BSTAR          = .34841E-3
MEAN_MOTION_DOT = .5824E-4
MEAN_MOTION_DDOT = 0

CCSDS_OMM_VERS = 2.0
CREATION_DATE  = 
ORIGINATOR     = 

OBJECT_NAME    = HXMT (HUIYAN)
OBJECT_ID      = 2017-034A
CENTER_NAME    = EARTH
REF_FRAME      = TEME
TIME_SYSTEM    = UTC
MEAN_ELEMENT_THEORY = SGP/SGP4

EPOCH          = 2026-01-02T12:57:39.600288
MEAN_MOTION    = 15.16536228
ECCENTRICITY   = .0032249
INCLINATION    = 43.0156
RA_OF_ASC_NODE = 24.1826
ARG_OF_PERICENTER = 179.0039
MEAN_ANOMALY   = 181.0878

EPHEMERIS_TYPE = 0
CLASSIFICATION_TYPE = U
NORAD_CAT_ID   = 42758
ELEMENT_SET_NO = 999
REV_AT_EPOCH   = 47249
BSTAR          = .51959E-3
MEAN_MOTION_DOT = .10228E-3
MEAN_MOTION_DDOT = 0

CCSDS_OMM_VERS = 2.0
CREATION_DATE  = 
ORIGINATOR     = 

OBJECT_NAME    = CZ-2C R/B
OBJECT_ID      = 2018-054D
CENTER_NAME    = EARTH
REF_FRAME      = TEME
TIME_SYSTEM    = UTC
MEAN_ELEMENT_THEORY = SGP/SGP4

EPOCH          = 2026-01-02T10:37:46.364736
MEAN_MOTION    = 15.79181139
ECCENTRICITY   = .0012451
INCLINATION    = 35.1338
RA_OF_ASC_NODE = 40.0224
ARG_OF_PERICENTER = 349.8056
MEAN_ANOMALY   = 10.2425

EPHEMERIS_TYPE = 0
CLASSIFICATION_TYPE = U
NORAD_CAT_ID   = 43521
ELEMENT_SET_NO = 999
REV_AT_EPOCH   = 41832
BSTAR          = .90664E-3
MEAN_MOTION_DOT = .172949E-2
MEAN_MOTION_DDOT = 0

CCSDS_OMM_VERS = 2.0
CREATION_DATE  = 
ORIGINATOR     = 

OBJECT_NAME    = SAOCOM 1A
OBJECT_ID      = 2018-076A
CENTER_NAME    = EARTH
REF_FRAME      = TEME
TIME_SYSTEM    = UTC
MEAN_ELEMENT_THEORY = SGP/SGP4

EPOCH          = 2026-01-02T14:24:16.756416
MEAN_MOTION    = 14.82157569
ECCENTRICITY   = .000133
INCLINATION    = 97.8843
RA_OF_ASC_NODE = 191.7182
ARG_OF_PERICENTER = 83.2580
MEAN_ANOMALY   = 276.8784

EPHEMERIS_TYPE = 0
CLASSIFICATION_TYPE = U
NORAD_CAT_ID   = 43641
ELEMENT_SET_NO = 999
REV_AT_EPOCH   = 39157
BSTAR          = -.21537E-4
MEAN_MOTION_DOT = -.224E-5
MEAN_MOTION_DDOT = 0

CCSDS_OMM_VERS = 2.0
CREATION_DATE  = 
ORIGINATOR     = 

OBJECT_NAME    = H-2A R/B
OBJECT_ID      = 2018-084L
CENTER_NAME    = EARTH
REF_FRAME      = TEME
TIME_SYSTEM    = UTC
MEAN_ELEMENT_THEORY = SGP/SGP4

EPOCH          = 2026-01-02T12:21:22.291776
MEAN_MOTION    = 15.38280019
ECCENTRICITY   = .0026068
INCLINATION    = 98.8758
RA_OF_ASC_NODE = 205.9140
ARG_OF_PERICENTER = 253.5313
MEAN_ANOMALY   = 106.3063

EPHEMERIS_TYPE = 0
CLASSIFICATION_TYPE = U
NORAD_CAT_ID   = 43682
ELEMENT_SET_NO = 999
REV_AT_EPOCH   = 39559
BSTAR          = .7927E-3
MEAN_MOTION_DOT = .30227E-3
MEAN_MOTION_DDOT = 0

CCSDS_OMM_VERS = 2.0
CREATION_DATE  = 
ORIGINATOR     = 

OBJECT_NAME    = SAOCOM 1B
OBJECT_ID      = 2020-059A
CENTER_NAME    = EARTH
REF_FRAME      = TEME
TIME_SYSTEM    = UTC
MEAN_ELEMENT_THEORY = SGP/SGP4

EPOCH          = 2026-01-02T18:23:40.676928
MEAN_MOTION    = 14.82168157
ECCENTRICITY   = .0001476
INCLINATION    = 97.8841
RA_OF_ASC_NODE = 190.9818
ARG_OF_PERICENTER = 84.3959
MEAN_ANOMALY   = 275.7422

EPHEMERIS_TYPE = 0
CLASSIFICATION_TYPE = U
NORAD_CAT_ID   = 46265
ELEMENT_SET_NO = 999
REV_AT_EPOCH   = 28898
BSTAR          = .16833E-3
MEAN_MOTION_DOT = .1288E-4
MEAN_MOTION_DDOT = 0

CCSDS_OMM_VERS = 2.0
CREATION_DATE  = 
ORIGINATOR     = 

OBJECT_NAME    = CSS (TIANHE)
OBJECT_ID      = 2021-035A
CENTER_NAME    = EARTH
REF_FRAME      = TEME
TIME_SYSTEM    = UTC
MEAN_ELEMENT_THEORY = SGP/SGP4

EPOCH          = 2026-01-02T17:14:11.835456
MEAN_MOTION    = 15.60093313
ECCENTRICITY   = .0010301
INCLINATION    = 41.4660
RA_OF_ASC_NODE = 249.2667
ARG_OF_PERICENTER = 206.2157
MEAN_ANOMALY   = 153.8161

EPHEMERIS_TYPE = 0
CLASSIFICATION_TYPE = U
NORAD_CAT_ID   = 48274
ELEMENT_SET_NO = 999
REV_AT_EPOCH   = 26730
BSTAR          = .37051E-3
MEAN_MOTION_DOT = .30782E-3
MEAN_MOTION_DDOT = 0

CCSDS_OMM_VERS = 2.0
CREATION_DATE  = 
ORIGINATOR     = 

OBJECT_NAME    = COSMOS 2550
OBJECT_ID      = 2021-056A
CENTER_NAME    = EARTH
REF_FRAME      = TEME
TIME_SYSTEM    = UTC
MEAN_ELEMENT_THEORY = SGP/SGP4

EPOCH          = 2026-01-02T18:54:51.578208
MEAN_MOTION    = 15.33828757
ECCENTRICITY   = .000834
INCLINATION    = 67.1441
RA_OF_ASC_NODE = 240.2690
ARG_OF_PERICENTER = 269.2800
MEAN_ANOMALY   = 90.7399

EPHEMERIS_TYPE = 0
CLASSIFICATION_TYPE = U
NORAD_CAT_ID   = 48865
ELEMENT_SET_NO = 999
REV_AT_EPOCH   = 25335
BSTAR          = .77585E-6
MEAN_MOTION_DOT = -.166E-5
MEAN_MOTION_DDOT = 0

CCSDS_OMM_VERS = 2.0
CREATION_DATE  = 
ORIGINATOR     = 

OBJECT_NAME    = CZ-2C R/B
OBJECT_ID      = 2022-058K
CENTER_NAME    = EARTH
REF_FRAME      = TEME
TIME_SYSTEM    = UTC
MEAN_ELEMENT_THEORY = SGP/SGP4

EPOCH          = 2026-01-02T04:35:51.656640
MEAN_MOTION    = 15.49737381
ECCENTRICITY   = .00439
INCLINATION    = 50.1924
RA_OF_ASC_NODE = 299.1650
ARG_OF_PERICENTER = 282.3337
MEAN_ANOMALY   = 77.2719

EPHEMERIS_TYPE = 0
CLASSIFICATION_TYPE = U
NORAD_CAT_ID   = 52794
ELEMENT_SET_NO = 999
REV_AT_EPOCH   = 19980
BSTAR          = .69708E-3
MEAN_MOTION_DOT = .40777E-3
MEAN_MOTION_DDOT = 0

